STARLINK-31143          
1 58770U 24011F   26068.24493299 -.00000039  00000+0  10792-4 0  9994
2 58770  53.1621  15.6419 0000732  82.7185 277.3899 15.30186255120202
2025-313BC              
1 67298U 25313BC  26068.18968176  .00075331  00000+0  26410-2 0  9997
2 67298  97.3985 144.8110 0008478 328.9209  31.1528 15.29126358  7890
